ATLAS CENTAUR 2         
1 00694U 63047A   26077.17159441  .00001837  00000+0  21233-3 0  9995
2 00694  30.3523 148.2392 0547487 155.0361 207.7787 14.12098844132827
THOR AGENA D R/B        
1 00733U 64002A   26077.31360126  .00000187  00000+0  83877-4 0  9991
2 00733  99.1220  91.1211 0032121 232.2997 127.5273 14.34025146239535
SL-3 R/B                
1 00877U 64053B   26076.97241453  .00000138  00000+0  51101-4 0  9999
2 00877  65.0771 306.9545 0080053 289.6152  69.6319 14.61374267268002
SL-8 R/B                
1 02802U 67045B   26077.15605422  .00000306  00000+0  92292-4 0  9997
2 02802  74.0132 332.2795 0064545 336.6183  23.2041 14.45630060 90242
SL-8 R/B                
1 03230U 68040B   26077.02835552  .00002599  00000+0  19351-3 0  9994
2 03230  74.0304 296.6552 0023511 117.3095 243.0492 15.03312794 91268
OAO 2                   
1 03597U 68110A   26077.06155942  .00000198  00000+0  58339-4 0  9993
2 03597  34.9924 218.4797 0006232 266.3097  93.6881 14.47312523 20314
ISIS 1                  
1 03669U 69009A   26077.12767106  .00000153  00000+0  92689-4 0  9996
2 03669  88.4526 154.3883 1707891  72.1411 305.7974 11.30416763349485
SERT 2                  
1 04327U 70009A   26077.32500905 -.00000003  00000+0  53035-4 0  9991
2 04327  99.2771  19.9466 0005379 134.8670 340.1220 13.58730671781066
SL-3 R/B                
1 05118U 71028B   26077.30721951  .00032717  00000+0  37412-3 0  9992
2 05118  81.2368  41.3790 0013420 247.8482 112.1348 15.61878636990014
ASTEX 1                 
1 05560U 71089A   26077.16806203  .00000487  00000+0  12378-3 0  9991
2 05560  92.7109 154.5007 0017506  60.7775 299.5179 14.50779023863534
SL-8 R/B                
1 05730U 71119B   26077.28443376  .00007098  00000+0  37132-3 0  9995
2 05730  73.8880 159.6528 0547588 124.4766 240.9385 14.38055822656729
OAO 3 (COPERNICUS)      
1 06153U 72065A   26076.83342593  .00000305  00000+0  66917-4 0  9993
2 06153  35.0049 250.9171 0007152 231.7274 335.5352 14.60004632847386
