CCSDS_OMM_VERS = 2.0
CREATION_DATE  = 
ORIGINATOR     = 

OBJECT_NAME    = ATLAS CENTAUR 2
OBJECT_ID      = 1963-047A
CENTER_NAME    = EARTH
REF_FRAME      = TEME
TIME_SYSTEM    = UTC
MEAN_ELEMENT_THEORY = SGP/SGP4

EPOCH          = 2026-03-18T04:07:05.757024
MEAN_MOTION    = 14.12098844
ECCENTRICITY   = .05474877
INCLINATION    = 30.3523
RA_OF_ASC_NODE = 148.2392
ARG_OF_PERICENTER = 155.0361
MEAN_ANOMALY   = 207.7787

EPHEMERIS_TYPE = 0
CLASSIFICATION_TYPE = U
NORAD_CAT_ID   = 694
ELEMENT_SET_NO = 999
REV_AT_EPOCH   = 13282
BSTAR          = .21232701E-3
MEAN_MOTION_DOT = .1837E-4
MEAN_MOTION_DDOT = 0

CCSDS_OMM_VERS = 2.0
CREATION_DATE  = 
ORIGINATOR     = 

OBJECT_NAME    = THOR AGENA D R/B
OBJECT_ID      = 1964-002A
CENTER_NAME    = EARTH
REF_FRAME      = TEME
TIME_SYSTEM    = UTC
MEAN_ELEMENT_THEORY = SGP/SGP4

EPOCH          = 2026-03-18T07:31:35.148864
MEAN_MOTION    = 14.34025146
ECCENTRICITY   = .0032121
INCLINATION    = 99.1220
RA_OF_ASC_NODE = 91.1211
ARG_OF_PERICENTER = 232.2997
MEAN_ANOMALY   = 127.5273

EPHEMERIS_TYPE = 0
CLASSIFICATION_TYPE = U
NORAD_CAT_ID   = 733
ELEMENT_SET_NO = 999
REV_AT_EPOCH   = 23953
BSTAR          = .8387744E-4
MEAN_MOTION_DOT = .187E-5
MEAN_MOTION_DDOT = 0

CCSDS_OMM_VERS = 2.0
CREATION_DATE  = 
ORIGINATOR     = 

OBJECT_NAME    = SL-3 R/B
OBJECT_ID      = 1964-053B
CENTER_NAME    = EARTH
REF_FRAME      = TEME
TIME_SYSTEM    = UTC
MEAN_ELEMENT_THEORY = SGP/SGP4

EPOCH          = 2026-03-17T23:20:16.615392
MEAN_MOTION    = 14.61374267
ECCENTRICITY   = .00800537
INCLINATION    = 65.0771
RA_OF_ASC_NODE = 306.9545
ARG_OF_PERICENTER = 289.6152
MEAN_ANOMALY   = 69.6319

EPHEMERIS_TYPE = 0
CLASSIFICATION_TYPE = U
NORAD_CAT_ID   = 877
ELEMENT_SET_NO = 999
REV_AT_EPOCH   = 26800
BSTAR          = .51101255E-4
MEAN_MOTION_DOT = .138E-5
MEAN_MOTION_DDOT = 0

CCSDS_OMM_VERS = 2.0
CREATION_DATE  = 
ORIGINATOR     = 

OBJECT_NAME    = SL-8 R/B
OBJECT_ID      = 1967-045B
CENTER_NAME    = EARTH
REF_FRAME      = TEME
TIME_SYSTEM    = UTC
MEAN_ELEMENT_THEORY = SGP/SGP4

EPOCH          = 2026-03-18T03:44:43.084608
MEAN_MOTION    = 14.45630060
ECCENTRICITY   = .00645451
INCLINATION    = 74.0132
RA_OF_ASC_NODE = 332.2795
ARG_OF_PERICENTER = 336.6183
MEAN_ANOMALY   = 23.2041

EPHEMERIS_TYPE = 0
CLASSIFICATION_TYPE = U
NORAD_CAT_ID   = 2802
ELEMENT_SET_NO = 999
REV_AT_EPOCH   = 9024
BSTAR          = .92291639E-4
MEAN_MOTION_DOT = .306E-5
MEAN_MOTION_DDOT = 0

CCSDS_OMM_VERS = 2.0
CREATION_DATE  = 
ORIGINATOR     = 

OBJECT_NAME    = SL-8 R/B
OBJECT_ID      = 1968-040B
CENTER_NAME    = EARTH
REF_FRAME      = TEME
TIME_SYSTEM    = UTC
MEAN_ELEMENT_THEORY = SGP/SGP4

EPOCH          = 2026-03-18T00:40:49.916928
MEAN_MOTION    = 15.03312794
ECCENTRICITY   = .0023511
INCLINATION    = 74.0304
RA_OF_ASC_NODE = 296.6552
ARG_OF_PERICENTER = 117.3095
MEAN_ANOMALY   = 243.0492

EPHEMERIS_TYPE = 0
CLASSIFICATION_TYPE = U
NORAD_CAT_ID   = 3230
ELEMENT_SET_NO = 999
REV_AT_EPOCH   = 9126
BSTAR          = .19351208E-3
MEAN_MOTION_DOT = .2599E-4
MEAN_MOTION_DDOT = 0

CCSDS_OMM_VERS = 2.0
CREATION_DATE  = 
ORIGINATOR     = 

OBJECT_NAME    = OAO 2
OBJECT_ID      = 1968-110A
CENTER_NAME    = EARTH
REF_FRAME      = TEME
TIME_SYSTEM    = UTC
MEAN_ELEMENT_THEORY = SGP/SGP4

EPOCH          = 2026-03-18T01:28:38.733888
MEAN_MOTION    = 14.47312523
ECCENTRICITY   = .00062323
INCLINATION    = 34.9924
RA_OF_ASC_NODE = 218.4797
ARG_OF_PERICENTER = 266.3097
MEAN_ANOMALY   = 93.6881

EPHEMERIS_TYPE = 0
CLASSIFICATION_TYPE = U
NORAD_CAT_ID   = 3597
ELEMENT_SET_NO = 999
REV_AT_EPOCH   = 2031
BSTAR          = .58339215E-4
MEAN_MOTION_DOT = .198E-5
MEAN_MOTION_DDOT = 0

CCSDS_OMM_VERS = 2.0
CREATION_DATE  = 
ORIGINATOR     = 

OBJECT_NAME    = ISIS 1
OBJECT_ID      = 1969-009A
CENTER_NAME    = EARTH
REF_FRAME      = TEME
TIME_SYSTEM    = UTC
MEAN_ELEMENT_THEORY = SGP/SGP4

EPOCH          = 2026-03-18T03:03:50.779584
MEAN_MOTION    = 11.30416763
ECCENTRICITY   = .17078914
INCLINATION    = 88.4526
RA_OF_ASC_NODE = 154.3883
ARG_OF_PERICENTER = 72.1411
MEAN_ANOMALY   = 305.7974

EPHEMERIS_TYPE = 0
CLASSIFICATION_TYPE = U
NORAD_CAT_ID   = 3669
ELEMENT_SET_NO = 999
REV_AT_EPOCH   = 34948
BSTAR          = .92688789E-4
MEAN_MOTION_DOT = .153E-5
MEAN_MOTION_DDOT = 0

CCSDS_OMM_VERS = 2.0
CREATION_DATE  = 
ORIGINATOR     = 

OBJECT_NAME    = SERT 2
OBJECT_ID      = 1970-009A
CENTER_NAME    = EARTH
REF_FRAME      = TEME
TIME_SYSTEM    = UTC
MEAN_ELEMENT_THEORY = SGP/SGP4

EPOCH          = 2026-03-18T07:48:00.781920
MEAN_MOTION    = 13.58730671
ECCENTRICITY   = .00053797
INCLINATION    = 99.2771
RA_OF_ASC_NODE = 19.9466
ARG_OF_PERICENTER = 134.8670
MEAN_ANOMALY   = 340.1220

EPHEMERIS_TYPE = 0
CLASSIFICATION_TYPE = U
NORAD_CAT_ID   = 4327
ELEMENT_SET_NO = 999
REV_AT_EPOCH   = 78106
BSTAR          = .53034587E-4
MEAN_MOTION_DOT = -.3E-7
MEAN_MOTION_DDOT = 0

CCSDS_OMM_VERS = 2.0
CREATION_DATE  = 
ORIGINATOR     = 

OBJECT_NAME    = SL-3 R/B
OBJECT_ID      = 1971-028B
CENTER_NAME    = EARTH
REF_FRAME      = TEME
TIME_SYSTEM    = UTC
MEAN_ELEMENT_THEORY = SGP/SGP4

EPOCH          = 2026-03-18T07:22:23.765664
MEAN_MOTION    = 15.61878636
ECCENTRICITY   = .001342
INCLINATION    = 81.2368
RA_OF_ASC_NODE = 41.3790
ARG_OF_PERICENTER = 247.8482
MEAN_ANOMALY   = 112.1348

EPHEMERIS_TYPE = 0
CLASSIFICATION_TYPE = U
NORAD_CAT_ID   = 5118
ELEMENT_SET_NO = 999
REV_AT_EPOCH   = 99001
BSTAR          = .37412297E-3
MEAN_MOTION_DOT = .32717E-3
MEAN_MOTION_DDOT = 0

CCSDS_OMM_VERS = 2.0
CREATION_DATE  = 
ORIGINATOR     = 

OBJECT_NAME    = ASTEX 1
OBJECT_ID      = 1971-089A
CENTER_NAME    = EARTH
REF_FRAME      = TEME
TIME_SYSTEM    = UTC
MEAN_ELEMENT_THEORY = SGP/SGP4

EPOCH          = 2026-03-18T04:02:00.559392
MEAN_MOTION    = 14.50779023
ECCENTRICITY   = .00175068
INCLINATION    = 92.7109
RA_OF_ASC_NODE = 154.5007
ARG_OF_PERICENTER = 60.7775
MEAN_ANOMALY   = 299.5179

EPHEMERIS_TYPE = 0
CLASSIFICATION_TYPE = U
NORAD_CAT_ID   = 5560
ELEMENT_SET_NO = 999
REV_AT_EPOCH   = 86353
BSTAR          = .12378251E-3
MEAN_MOTION_DOT = .487E-5
MEAN_MOTION_DDOT = 0

CCSDS_OMM_VERS = 2.0
CREATION_DATE  = 
ORIGINATOR     = 

OBJECT_NAME    = SL-8 R/B
OBJECT_ID      = 1971-119B
CENTER_NAME    = EARTH
REF_FRAME      = TEME
TIME_SYSTEM    = UTC
MEAN_ELEMENT_THEORY = SGP/SGP4

EPOCH          = 2026-03-18T06:49:35.076864
MEAN_MOTION    = 14.38055822
ECCENTRICITY   = .05475882
INCLINATION    = 73.8880
RA_OF_ASC_NODE = 159.6528
ARG_OF_PERICENTER = 124.4766
MEAN_ANOMALY   = 240.9385

EPHEMERIS_TYPE = 0
CLASSIFICATION_TYPE = U
NORAD_CAT_ID   = 5730
ELEMENT_SET_NO = 999
REV_AT_EPOCH   = 65672
BSTAR          = .37131527E-3
MEAN_MOTION_DOT = .7098E-4
MEAN_MOTION_DDOT = 0

CCSDS_OMM_VERS = 2.0
CREATION_DATE  = 
ORIGINATOR     = 

OBJECT_NAME    = OAO 3 (COPERNICUS)
OBJECT_ID      = 1972-065A
CENTER_NAME    = EARTH
REF_FRAME      = TEME
TIME_SYSTEM    = UTC
MEAN_ELEMENT_THEORY = SGP/SGP4

EPOCH          = 2026-03-17T20:00:08.000352
MEAN_MOTION    = 14.60004632
ECCENTRICITY   = .00071521
INCLINATION    = 35.0049
RA_OF_ASC_NODE = 250.9171
ARG_OF_PERICENTER = 231.7274
MEAN_ANOMALY   = 335.5352

EPHEMERIS_TYPE = 0
CLASSIFICATION_TYPE = U
NORAD_CAT_ID   = 6153
ELEMENT_SET_NO = 999
REV_AT_EPOCH   = 84738
BSTAR          = .66916714E-4
MEAN_MOTION_DOT = .305E-5
MEAN_MOTION_DDOT = 0

